BIRKELAND               
1 55015U 23001G   26130.19270815  .00006132  00000+0  15878-3 0  9990
2 55015  97.3362 198.0821 0005510 230.5696 129.5063 15.39410756186506
ION SCV-008             
1 55051U 23001AU  26130.19809249  .00004589  00000+0  16975-3 0  9992
2 55051  97.5681 225.9002 0016034 142.9581 217.2769 15.28102679185535
ION SCV-007             
1 55060U 23001BD  26130.13852970  .00000280  00000+0  46386-4 0  9999
2 55060  97.9025 193.9043 0013789  98.3574 261.9200 14.77517980180630
HUYGENS                 
1 55093U 23001CN  26130.19278201  .00006998  00000+0  18073-3 0  9993
2 55093  97.3265 197.3609 0008891 210.1344 149.9391 15.39413717186521
SHARJAHSAT-1            
1 55104U 23001CZ  26130.17575590  .00013228  00000+0  25743-3 0  9991
2 55104  97.3188 198.4536 0004814 226.2731 133.8121 15.47691275186617
HORUS 1                 
1 55690U 23025A   26130.18798807  .00003985  00000+0  16975-3 0  9992
2 55690  97.3471 205.5774 0002054 114.1537 245.9915 15.23533741178264
HORUS 2                 
1 55844U 23032A   26130.15750924  .00004309  00000+0  18417-3 0  9990
2 55844  97.3538 206.3178 0002359 151.9155 208.2210 15.23375871175691
GLOBAL-19               
1 55982U 23041B   26130.11812838  .00010203  00000+0  27146-3 0  9991
2 55982  42.0013  63.9885 0004925  69.1140 291.0226 15.38223916176063
BRO-9                   
1 56185U 23054H   26130.18241839  .00164815  00000+0  84947-3 0  9996
2 56185  97.2984  45.9412 0007548 129.7397 230.4537 15.80665643173057
ION SCV-010             
1 56192U 23054Q   26130.19367157  .00003171  00000+0  12645-3 0  9990
2 56192  97.3825  20.1794 0012398 347.3092  12.7832 15.25862483170402
TELEOS-2                
1 56310U 23057C   26129.89820640  .00004126  00000+0  29537-3 0  9990
2 56310   9.9873 122.9666 0000823 272.9496  87.0623 14.96376065167059
SNIPE 4                 
1 56744U 23072B   26130.17571975  .00015446  00000+0  37775-3 0  9995
2 56744  97.5295 335.0148 0007144 102.6707 257.5338 15.40869189164250
SNIPE 2                 
1 56745U 23072C   26130.19439734  .00018041  00000+0  38442-3 0  9990
2 56745  97.5292 337.8264 0006259 126.4360 233.7466 15.44965412164373
2023-072G               
1 56749U 23072G   26130.21858858  .00020502  00000+0  38683-3 0  9991
2 56749  97.4954 336.6184 0005450 117.2117 242.9690 15.48488414164589
GEISAT PRECURSOR        
1 56934U 23084C   26130.13316509  .00005909  00000+0  18139-3 0  9991
2 56934  97.6169 269.8627 0007273 117.2473 242.9511 15.34118100161692
BLACKJACK ACES-3        
1 56950U 23084U   26130.01282602  .00002907  00000+0  14470-3 0  9991
2 56950  97.6154 264.9326 0004263 121.4693 238.6958 15.18407859161379
BLACKJACK ACES-2        
1 56955U 23084Z   26130.08507126  .00004477  00000+0  22190-3 0  9996
2 56955  97.6150 265.0911 0002633 104.1586 255.9940 15.18265455161399
BLACKJACK ACES-1        
1 56956U 23084AA  26130.00668941  .00004796  00000+0  23700-3 0  9994
2 56956  97.6141 264.7917 0002196  92.0961 268.0524 15.18340880111101
ION SCV-011             
1 56957U 23084AB  26130.10016956  .00003921  00000+0  14462-3 0  9993
2 56957  98.1389 313.8630 0007669 160.8937 199.2589 15.28467340159994
GHOST-3                 
1 56958U 23084AC  26130.13512103  .00012934  00000+0  26095-3 0  9991
2 56958  97.6170 276.7169 0007213  77.5488 282.6567 15.46644473162138
TOMORROW-R2             
1 56962U 23084AG  26130.16265818  .00129249  00000+0  48324-3 0  9994
2 56962  97.5931 289.5689 0001186 312.6704  47.4467 15.87593164162998
AFR-1                   
1 56964U 23084AJ  26130.19388275  .00003378  00000+0  12550-3 0  9998
2 56964  97.6217 265.9936 0011997 110.9262 249.3262 15.28223341161425
METEOR-M2 3             
1 57166U 23091A   26130.22705213 -.00000007  00000+0  15862-4 0  9997
2 57166  98.6111 185.9764 0002769 284.5515  75.5357 14.24043505149113
UMKA 1 (RS40S)          
1 57172U 23091G   26130.18943802  .00003884  00000+0  18131-3 0  9993
2 57172  97.5074 189.0407 0011374 248.8008 111.2012 15.20382770158233
2023-091H               
1 57173U 23091H   26130.20521730  .00006785  00000+0  25230-3 0  9990
2 57173  97.5069 193.1106 0008704 241.7124 118.3237 15.27818756158506
2023-091J               
1 57174U 23091J   26130.18005596  .00002209  00000+0  12631-3 0  9993
2 57174  97.5083 183.8200 0011653 280.0295  79.9622 15.13671976157882
CUBEBEL 2 (EU11S)       
1 57175U 23091K   26130.15245124  .00007744  00000+0  28366-3 0  9995
2 57175  97.5071 193.0533 0008738 243.6678 116.3664 15.28268989158494
SITRO-AIS 5 (KATYS)     
1 57176U 23091L   26130.17727306  .00007211  00000+0  26168-3 0  9992
2 57176  97.5079 193.7379 0010492 230.4121 129.6192 15.28585070158536
ZORKIY-2M 1             
1 57177U 23091M   26130.17715659  .00004489  00000+0  20883-3 0  9993
2 57177  97.5115 189.2730 0012006 245.5195 114.4789 15.20409734158224
CUBESX-HSE 3 (RS42S)    
1 57178U 23091N   26130.19278380  .00008096  00000+0  27884-3 0  9997
2 57178  97.5110 195.3259 0010156 219.4807 140.5695 15.30257611158613
