OBJECT_NAME,OBJECT_ID,EPOCH,MEAN_MOTION,ECCENTRICITY,INCLINATION,RA_OF_ASC_NODE,ARG_OF_PERICENTER,MEAN_ANOMALY,EPHEMERIS_TYPE,CLASSIFICATION_TYPE,NORAD_CAT_ID,ELEMENT_SET_NO,REV_AT_EPOCH,BSTAR,MEAN_MOTION_DOT,MEAN_MOTION_DDOT
BIRKELAND,2023-001G,2026-05-10T04:37:29.984160,15.39410756,.000551,97.3362,198.0821,230.5696,129.5063,0,U,55015,999,18650,.15878E-3,.6132E-4,0
ION SCV-008,2023-001AU,2026-05-10T04:45:15.191136,15.28102679,.0016034,97.5681,225.9002,142.9581,217.2769,0,U,55051,999,18553,.16975E-3,.4589E-4,0
ION SCV-007,2023-001BD,2026-05-10T03:19:28.966080,14.77517980,.0013789,97.9025,193.9043,98.3574,261.9200,0,U,55060,999,18063,.46386E-4,.28E-5,0
HUYGENS,2023-001CN,2026-05-10T04:37:36.365664,15.39413717,.0008891,97.3265,197.3609,210.1344,149.9391,0,U,55093,999,18652,.18073E-3,.6998E-4,0
SHARJAHSAT-1,2023-001CZ,2026-05-10T04:13:05.309760,15.47691275,.0004814,97.3188,198.4536,226.2731,133.8121,0,U,55104,999,18661,.25743E-3,.13228E-3,0
HORUS 1,2023-025A,2026-05-10T04:30:42.169248,15.23533741,.0002054,97.3471,205.5774,114.1537,245.9915,0,U,55690,999,17826,.16975E-3,.3985E-4,0
HORUS 2,2023-032A,2026-05-10T03:46:48.798336,15.23375871,.0002359,97.3538,206.3178,151.9155,208.2210,0,U,55844,999,17569,.18417E-3,.4309E-4,0
GLOBAL-19,2023-041B,2026-05-10T02:50:06.292032,15.38223916,.0004925,42.0013,63.9885,69.1140,291.0226,0,U,55982,999,17606,.27146E-3,.10203E-3,0
BRO-9,2023-054H,2026-05-10T04:22:40.948896,15.80665643,.0007548,97.2984,45.9412,129.7397,230.4537,0,U,56185,999,17305,.84947E-3,.164815E-2,0
ION SCV-010,2023-054Q,2026-05-10T04:38:53.223648,15.25862483,.0012398,97.3825,20.1794,347.3092,12.7832,0,U,56192,999,17040,.12645E-3,.3171E-4,0
TELEOS-2,2023-057C,2026-05-09T21:33:25.032960,14.96376065,.0000823,9.9873,122.9666,272.9496,87.0623,0,U,56310,999,16705,.29537E-3,.4126E-4,0
SNIPE 4,2023-072B,2026-05-10T04:13:02.186400,15.40869189,.0007144,97.5295,335.0148,102.6707,257.5338,0,U,56744,999,16425,.37775E-3,.15446E-3,0
SNIPE 2,2023-072C,2026-05-10T04:39:55.930176,15.44965412,.0006259,97.5292,337.8264,126.4360,233.7466,0,U,56745,999,16437,.38442E-3,.18041E-3,0
2023-072G,2023-072G,2026-05-10T05:14:46.053312,15.48488414,.000545,97.4954,336.6184,117.2117,242.9690,0,U,56749,999,16458,.38683E-3,.20502E-3,0
GEISAT PRECURSOR,2023-084C,2026-05-10T03:11:45.463776,15.34118100,.0007273,97.6169,269.8627,117.2473,242.9511,0,U,56934,999,16169,.18139E-3,.5909E-4,0
BLACKJACK ACES-3,2023-084U,2026-05-10T00:18:28.168128,15.18407859,.0004263,97.6154,264.9326,121.4693,238.6958,0,U,56950,999,16137,.1447E-3,.2907E-4,0
BLACKJACK ACES-2,2023-084Z,2026-05-10T02:02:30.156864,15.18265455,.0002633,97.6150,265.0911,104.1586,255.9940,0,U,56955,999,16139,.2219E-3,.4477E-4,0
BLACKJACK ACES-1,2023-084AA,2026-05-10T00:09:37.965024,15.18340880,.0002196,97.6141,264.7917,92.0961,268.0524,0,U,56956,999,11110,.237E-3,.4796E-4,0
ION SCV-011,2023-084AB,2026-05-10T02:24:14.649984,15.28467340,.0007669,98.1389,313.8630,160.8937,199.2589,0,U,56957,999,15999,.14462E-3,.3921E-4,0
GHOST-3,2023-084AC,2026-05-10T03:14:34.456992,15.46644473,.0007213,97.6170,276.7169,77.5488,282.6567,0,U,56958,999,16213,.26095E-3,.12934E-3,0
TOMORROW-R2,2023-084AG,2026-05-10T03:54:13.666752,15.87593164,.0001186,97.5931,289.5689,312.6704,47.4467,0,U,56962,999,16299,.48324E-3,.129249E-2,0
AFR-1,2023-084AJ,2026-05-10T04:39:11.469600,15.28223341,.0011997,97.6217,265.9936,110.9262,249.3262,0,U,56964,999,16142,.1255E-3,.3378E-4,0
METEOR-M2 3,2023-091A,2026-05-10T05:26:57.304032,14.24043505,.0002769,98.6111,185.9764,284.5515,75.5357,0,U,57166,999,14911,.15862E-4,-.7E-7,0
UMKA 1 (RS40S),2023-091G,2026-05-10T04:32:47.444928,15.20382770,.0011374,97.5074,189.0407,248.8008,111.2012,0,U,57172,999,15823,.18131E-3,.3884E-4,0
2023-091H,2023-091H,2026-05-10T04:55:30.774720,15.27818756,.0008704,97.5069,193.1106,241.7124,118.3237,0,U,57173,999,15850,.2523E-3,.6785E-4,0
2023-091J,2023-091J,2026-05-10T04:19:16.834944,15.13671976,.0011653,97.5083,183.8200,280.0295,79.9622,0,U,57174,999,15788,.12631E-3,.2209E-4,0
CUBEBEL 2 (EU11S),2023-091K,2026-05-10T03:39:31.787136,15.28268989,.0008738,97.5071,193.0533,243.6678,116.3664,0,U,57175,999,15849,.28366E-3,.7744E-4,0
SITRO-AIS 5 (KATYS),2023-091L,2026-05-10T04:15:16.392384,15.28585070,.0010492,97.5079,193.7379,230.4121,129.6192,0,U,57176,999,15853,.26168E-3,.7211E-4,0
ZORKIY-2M 1,2023-091M,2026-05-10T04:15:06.329376,15.20409734,.0012006,97.5115,189.2730,245.5195,114.4789,0,U,57177,999,15822,.20883E-3,.4489E-4,0
CUBESX-HSE 3 (RS42S),2023-091N,2026-05-10T04:37:36.520320,15.30257611,.0010156,97.5110,195.3259,219.4807,140.5695,0,U,57178,999,15861,.27884E-3,.8096E-4,0
